satname,norad_id,inclination_deg,eccentricity,mean_motion_rev_per_day,perigee_km,apogee_km,l1,l2
STARLINK-1234,45190,53.0339,0.0001301,15.82271089,323.14777724539636,324.89167842598,1 45190U 20012N   26180.14171963  .00105244  00000+0  49697-3 0  9996,2 45190  53.0339 133.7041 0001301 131.7603 228.3530 15.82271089353398
STARLINK-1269,45197,53.1533,0.000268,15.36865554,453.5535089711875,457.2162767057489,1 45197U 20012V   26180.45897657  .00050709  00000+0  13880-2 0  9991,2 45197  53.1533 238.5318 0002680   7.1182 352.9859 15.36865554352057
STARLINK-1154,45198,53.0386,0.0004295,15.65412792,369.1526304417621,374.9510426523566,1 45198U 20012W   26180.31297388  .00037658  00000+0  37386-3 0  9998,2 45198  53.0386 189.3886 0004295  42.3010 317.8336 15.65412792352673
STARLINK-1199,45201,53.1548,0.0005294,15.3679298,451.98224970094816,459.2178104684026,1 45201U 20012Z   26180.49509499  .00024639  00000+0  68359-3 0  9990,2 45201  53.1548 222.6316 0005294 359.7498   0.3502 15.36792980352300
STARLINK-1209,45206,53.0361,0.0001397,15.72659471,350.3595850471238,352.2397896575703,1 45206U 20012AE  26179.65123798  .00061800  00000+0  45170-3 0  9992,2 45206  53.0361 152.2734 0001397 110.3283 249.7885 15.72659471352245
STARLINK-1231,45212,53.0354,0.0002182,15.29212872,476.6679961775426,479.66008595186213,1 45212U 20012AL  26180.32215205  .00032912  00000+0  11528-2 0  9991,2 45212  53.0354 219.5849 0002182  67.9206 292.2025 15.29212872352266
STARLINK-1271,45217,53.1543,0.0004731,15.37002046,451.7475761173091,458.2130717292048,1 45217U 20012AR  26180.35999978  .00040396  00000+0  11043-2 0  9992,2 45217  53.1543 223.3614 0004731   3.2082 356.8951 15.37002046352288
STARLINK-1191,45222,53.1518,0.0003571,15.41173015,440.2104710240292,445.08187436596745,1 45222U 20012AW  26180.34796209  .00045706  00000+0  10885-2 0  9992,2 45222  53.1518 195.7896 0003571 343.3657  16.7231 15.41173015352673
STARLINK-1212,45223,53.0376,0.0001537,15.71548238,353.43674314176315,355.5063470085206,1 45223U 20012AX  26180.54828703  .00056170  00000+0  43098-3 0  9990,2 45223  53.0376 163.3112 0001537 103.3512 256.7676 15.71548238353127
STARLINK-1215,45225,53.1532,0.0005454,15.371419,450.8392958460727,458.292408117014,1 45225U 20012AZ  26180.48738005  .00037572  00000+0  10235-2 0  9991,2 45225  53.1532 197.0078 0005454   5.2869 354.8191 15.37141900352629
STARLINK-1221,45227,53.0633,0.0002927,15.4583572,426.9311540635863,430.9160073275252,1 45227U 20012BB  26179.93958908  .00060321  00000+0  12228-2 0  9999,2 45227  53.0633 100.9542 0002927  32.5491 327.5695 15.45835720353892
STARLINK-1222,45228,53.0509,0.0003843,15.5670283,394.60346061775545,399.8109901894004,1 45228U 20012BC  26180.27669183  .00032664  00000+0  45419-3 0  9991,2 45228  53.0509 164.9965 0003843  59.8582 300.2809 15.56702830352964
STARLINK-1226,45229,53.152,0.0005362,15.46446991,423.4807070374727,430.7786750369405,1 45229U 20012BD  26180.32444186  .00055153  00000+0  10960-2 0  9992,2 45229  53.1520 192.4224 0005362   3.4328 356.6715 15.46446991352619
STARLINK-1227,45230,53.15,0.0005283,15.46531197,423.2875734221334,430.4777572005014,1 45230U 20012BE  26180.33294881  .00049404  00000+0  98054-3 0  9993,2 45230  53.1500 192.4698 0005283 357.6985   2.3998 15.46531197352733
STARLINK-1246,45235,53.1532,0.0004488,15.37026195,451.8420804157322,457.975422282143,1 45235U 20012BK  26180.52959565  .00037539  00000+0  10266-2 0  9990,2 45235  53.1532 237.8195 0004488 329.7484  30.3260 15.37026195352122
STARLINK-1270,45237,53.0374,0.0001603,15.70555643,356.22823789457016,358.38762153903735,1 45237U 20012BM  26180.15582973  .00050721  00000+0  40640-3 0  9994,2 45237  53.0374 167.0840 0001603 105.4653 254.6540 15.70555643353036
STARLINK-1279,45360,53.0336,0.0003242,15.83293688,318.9617070966042,323.3055141605364,1 45360U 20019A   26180.47873285  .00108824  00000+0  48941-3 0  9992,2 45360  53.0336 266.5533 0003242   0.1015   0.0007 15.83293688348227
STARLINK-1301,45361,53.033,0.0004908,15.8496824,313.1284808980663,319.6998523232105,1 45361U 20019B   26180.53650152  .00116112  00000+0  48141-3 0  9997,2 45361  53.0330 268.3484 0004908 357.3863   2.7133 15.84968240348217
STARLINK-1262,45366,53.1531,0.0002753,15.35973037,456.14983609634146,459.913830655998,1 45366U 20019G   26180.51499176  .00051370  00000+0  14467-2 0  9994,2 45366  53.1531   4.4920 0002753 170.0939 190.0119 15.35973037346893
STARLINK-1273,45367,53.043,0.0001155,15.60031765,386.78379950398266,388.3466767209866,1 45367U 20019H   26179.91668981  .00125630  00000+0  15068-2 0  9998,2 45367  53.0430 339.1916 0001155 138.1726 215.3403 15.60031765  5898
STARLINK-1277,45369,53.042,7.46e-05,15.69191675,360.7076511144878,361.7131617475279,1 45369U 20019K   26179.82471725  .00054297  00000+0  45976-3 0  9990,2 45369  53.0420 332.4046 0000746  21.0436 339.0611 15.69191675347263
STARLINK-1281,45370,53.1568,0.0002933,15.36772983,453.6549594004173,457.66366431695496,1 45370U 20019L   26180.51474039  .00045292  00000+0  12455-2 0  9991,2 45370  53.1568   3.9992 0002933 148.1816 211.9365 15.36772983346907
STARLINK-1300,45374,53.1579,0.0002606,15.37388146,452.0558167414647,455.61664118840145,1 45374U 20019Q   26180.51889691  .00050656  00000+0  13634-2 0  9999,2 45374  53.1579   3.8009 0002606 165.2869 194.8211 15.37388146346900
STARLINK-1302,45375,53.045,0.000244,15.69466732,358.77877159932723,362.06718886968065,1 45375U 20019R   26179.79677728  .00052327  00000+0  43835-3 0  9998,2 45375  53.0450 328.3594 0002440 121.0989 239.0267 15.69466732347313
STARLINK-1304,45376,53.0419,0.0001424,15.65464047,370.9432908049557,372.8657026232204,1 45376U 20019S   26180.55554948  .00042282  00000+0  41813-3 0  9996,2 45376  53.0419 326.5690 0001424 165.4232 194.6823 15.65464047347407
STARLINK-1305,45377,53.0385,0.0004892,15.74355019,343.17749996926705,349.756852695391,1 45377U 20019T   26180.51757558  .00064131  00000+0  43543-3 0  9994,2 45377  53.0385 303.9164 0004892 328.7255  31.3472 15.74355019347726
STARLINK-1319,45379,53.0363,0.0001687,15.81504229,325.0550851303242,327.3171237457609,1 45379U 20019V   26180.52325443  .00094981  00000+0  46565-3 0  9994,2 45379  53.0363 294.5508 0001687   5.6221 354.4819 15.81504229347859
STARLINK-1266,45383,53.0457,0.000218,15.6788255,363.49129606973383,366.43128692482696,1 45383U 20019Z   26180.53700309  .00043171  00000+0  38721-3 0  9998,2 45383  53.0457 311.2222 0002180 326.9493  33.1386 15.67882550347611
STARLINK-1267,45384,53.0437,0.0001195,15.72120349,352.03371680192686,353.642419843256,1 45384U 20019AA  26180.55146852  .00059412  00000+0  44458-3 0  9997,2 45384  53.0437 302.1735 0001195  47.5010 312.6108 15.72120349347742
STARLINK-1272,45386,53.0388,0.0001601,15.76720738,338.6635433028441,340.8146072221425,1 45386U 20019AC  26180.51339368  .00074721  00000+0  45662-3 0  9999,2 45386  53.0388 280.4476 0001601  41.8554 318.2588 15.76720738348041
STARLINK-1274,45387,53.0191,0.0005118,15.65900271,367.19680410728233,374.1048633338787,1 45387U 20019AD  26180.53085240  .00108115  00000+0  10335-2 0  9992,2 45387  53.0191 280.8864 0005118 266.2767  93.7662 15.65900271348032
STARLINK-1280,45388,53.0336,0.0004803,15.87673748,305.5949411459578,312.0184192451534,1 45388U 20019AE  26180.58335647  .00137304  00000+0  49737-3 0  9998,2 45388  53.0336 285.6671 0004803 352.2022  30.4430 15.87673748  5528
STARLINK-1283,45389,53.0379,0.0002806,15.74331584,344.64696705766255,348.4208523721936,1 45389U 20019AF  26180.52291713  .00062045  00000+0  42210-3 0  9996,2 45389  53.0379 279.3940 0002806 315.1708  44.9083 15.74331584348063
STARLINK-1284,45390,53.0398,0.0003135,15.72542084,349.52479211036825,353.744358888207,1 45390U 20019AG  26180.50078096  .00059802  00000+0  43946-3 0  9997,2 45390  53.0398 303.6677 0003135  58.3909 301.7414 15.72542084347719
STARLINK-1297,45395,53.0409,0.0001449,15.75377818,342.5822979231698,344.53024463318707,1 45395U 20019AM  26180.51315889  .00070419  00000+0  45690-3 0  9992,2 45395  53.0409 302.6156 0001449  15.9333 344.1731 15.75377818346912
STARLINK-1307,45397,53.0534,5.74e-05,15.58099551,392.76888460839746,393.54622922353064,1 45397U 20019AP  26179.79902267  .00035891  00000+0  47303-3 0  9992,2 45397  53.0534 314.2241 0000574 283.0110  77.0838 15.58099551347339
STARLINK-1255,45399,53.0339,0.0001074,15.67831004,364.3848624905195,365.8333117500333,1 45399U 20019AR  26180.54185161  .00045475  00000+0  40835-3 0  9997,2 45399  53.0339 276.9518 0001074 202.3428 157.7541 15.67831004347904
STARLINK-1260,45404,53.155,0.0002875,15.39899198,444.445068990427,448.3691818625475,1 45404U 20019AW  26179.80006435  .00050400  00000+0  12500-2 0  9998,2 45404  53.1550 329.5982 0002875 173.0285 187.0760 15.39899198347032
STARLINK-1263,45405,53.1577,0.0001735,15.36945291,453.96296618458746,456.33411626739417,1 45405U 20019AX  26179.74569220  .00048627  00000+0  13285-2 0  9997,2 45405  53.1577 331.5552 0001735 202.1373 157.9556 15.36945291347003
STARLINK-1265,45406,53.1545,7.07e-05,15.40314073,444.69922653068716,445.6640437856986,1 45406U 20019AY  26179.72282452  .00060357  00000+0  14730-2 0  9995,2 45406  53.1545 329.8982 0000707 163.6307 196.4721 15.40314073347029
STARLINK-1278,45408,53.0418,0.0002244,15.76366287,339.23834411228654,342.2537788302752,1 45408U 20019BA  26180.52544613  .00071869  00000+0  44638-3 0  9998,2 45408  53.0418 301.3201 0002244  33.4452 326.6709 15.76366287347476
STARLINK-1296,45412,53.1558,0.0001511,15.40559313,443.4265906893106,445.48837874259243,1 45412U 20019BE  26180.40864664  .00052691  00000+0  12780-2 0  9995,2 45412  53.1558 326.3258 0001511 148.3343 211.7753 15.40559313347138
STARLINK-1309,45414,53.0598,0.0001764,15.7494735,343.5950845375537,345.9669300105197,1 45414U 20019BG  26180.49861387  .00064548  00000+0  42736-3 0  9994,2 45414  53.0598 295.6387 0001764  28.2532 331.8582 15.74947350347537
